PROBA-1                 
1 26958U 01049B   26185.99153834  .00004292  00000+0  27671-3 0  9990
2 26958  97.9596 195.1461 0056230  63.5053 297.1926 15.07577420346302
CUTE-1 (CO-55)          
1 27844U 03031E   26185.73961448  .00000442  00000+0  21011-3 0  9993
2 27844  98.6737 194.0777 0010516 129.7528 230.4579 14.24347463194179
CUBESAT XI-IV (CO-57)   
1 27848U 03031J   26185.94773638  .00000336  00000+0  16664-3 0  9992
2 27848  98.6769 193.9817 0010102 146.4963 213.6856 14.23630898193908
APRIZESAT 4             
1 35684U 09041D   26185.92402970  .00001013  00000+0  12723-3 0  9997
2 35684  98.1407 261.5978 0041912 263.8399  95.8039 14.83904708913991
APRIZESAT 3             
1 35686U 09041F   26185.68673844  .00001745  00000+0  15458-3 0  9992
2 35686  98.2081 339.7511 0061704  10.3583 349.8892 14.96290082918995
PROBA-2                 
1 36037U 09059B   26185.77821049  .00000309  00000+0  82401-4 0  9992
2 36037  98.2456   8.8874 0012329 222.3373 137.6873 14.54870834884086
APRIZESAT 5             
1 37792U 11044E   26184.76166404  .00001181  00000+0  15635-3 0  9996
2 37792  98.2450 118.2722 0051089 310.4764  49.2000 14.81111495801244
APRIZESAT 6             
1 37793U 11044F   26185.00864773  .00000993  00000+0  14684-3 0  9992
2 37793  98.2349  95.8509 0043911  33.6747 347.0397 14.76943409799634
PROBA-V                 
1 39159U 13021A   26185.69031730  .00000182  00000+0  98030-4 0  9999
2 39159  98.3596 163.4337 0005419  83.5847 276.5949 14.23601984683603
APRIZESAT 7             
1 39416U 13066A   26185.59596765  .00001559  00000+0  15905-3 0  9995
2 39416  97.7716 138.5665 0036513 151.3854 208.9379 14.91603854683827
APRIZESAT 8             
1 39425U 13066K   26185.29294061  .00001009  00000+0  11504-3 0  9997
2 39425  97.8225 132.5230 0044684 228.3816 131.3569 14.87683163682214
BUGSAT-1 (TITA)         
1 40014U 14033E   26185.92724426  .00008489  00000+0  44362-3 0  9998
2 40014  98.0432 279.5156 0028988 119.3647 241.0485 15.15796457658528
SAUDISAT 4              
1 40016U 14033G   26185.36424346  .00000704  00000+0  99303-4 0  9994
2 40016  97.7605 330.9067 0045180  19.3039 340.9871 14.79566664648619
APRIZESAT 9             
1 40018U 14033J   26185.65117246  .00001131  00000+0  17276-3 0  9999
2 40018  97.9083 318.4249 0066973 143.2428 217.3401 14.74242894646130
APRIZESAT 10            
1 40019U 14033K   26185.81374655  .00000896  00000+0  14804-3 0  9998
2 40019  97.9672 312.3822 0077957 216.6992 142.8862 14.70902974644847
TECHDEMOSAT-1 (TDS-1)   
1 40076U 14037H   26185.94385260  .00014697  00000+0  82212-3 0  9995
2 40076  98.3820 179.9199 0005946 192.6898 167.4182 15.13574703650917
TECHNOSAT               
1 42829U 17042E   26184.87093637  .00003285  00000+0  23451-3 0  9998
2 42829  97.4295 341.8960 0018427  40.8087 319.4516 15.05054378489214
FLYING LAPTOP           
1 42831U 17042G   26185.98245589  .00005903  00000+0  46169-3 0  9999
2 42831  97.4771 340.8398 0019966  64.9202 295.4092 15.01265311489124
HAWK-A                  
1 43765U 18099H   26185.41117586  .00009564  00000+0  38161-3 0  9992
2 43765  97.3899 237.4238 0033679 222.4717 137.3914 15.24854729415728
HAWK-B                  
1 43794U 18099AN  26185.58471714  .00010696  00000+0  45148-3 0  9999
2 43794  97.3945 236.9736 0030528 240.5702 119.2487 15.23026356415689
HAWK-C                  
1 43799U 18099AT  26185.61044085  .00014955  00000+0  53132-3 0  9999
2 43799  97.3876 238.6189 0039317 221.7290 138.0949 15.28366605416576
SALSAT                  
1 46495U 20068K   26185.73936093  .00013612  00000+0  46989-3 0  9997
2 46495  97.8855 189.8756 0008222 233.3566 126.6918 15.30063013318049
HAWK-2C                 
1 47502U 21006CT  26185.56041259  .00011645  00000+0  34600-3 0  9993
2 47502  97.2263 229.5246 0008329 131.3756 228.8205 15.34887498302163
HAWK-2A                 
1 47505U 21006CW  26185.36715911  .00008568  00000+0  25524-3 0  9992
2 47505  97.2307 230.0233 0007742 134.7565 225.4310 15.34893809302131
HAWK-2B                 
1 47508U 21006CZ  26185.10081093  .00009362  00000+0  27764-3 0  9995
2 47508  97.2176 228.0668 0008303 133.9781 226.2149 15.35005144302094
HAWK-3B                 
1 48931U 21059BE  26185.27527347  .00060391  00000+0  48058-3 0  9997
2 48931  97.6640  23.6166 0003519 241.8172 118.2734 15.71026933280537
HAWK-3C                 
1 48948U 21059BX  26184.82908216  .00046359  00000+0  37060-3 0  9992
2 48948  97.6758  28.8415 0003695 245.7637 114.3239 15.70972874280465
HAWK-3A                 
1 48957U 21059CG  26185.52961677  .00079021  00000+0  62601-3 0  9991
2 48957  97.6706  26.8019 0003729 246.0669 114.0203 15.71068404280579
HAWK-5C                 
1 52754U 22057Y   26185.90725609  .00029035  00000+0  48235-3 0  9992
2 52754  97.6617 346.7263 0003739  23.9765 336.1660 15.52046769229098
HAWK-5B                 
1 52756U 22057AA  26185.90707303  .00029793  00000+0  49475-3 0  9993
2 52756  97.6632 345.0773 0004301  12.9163 347.2198 15.52050403229090
